OBJECT_NAME,OBJECT_ID,EPOCH,MEAN_MOTION,ECCENTRICITY,INCLINATION,RA_OF_ASC_NODE,ARG_OF_PERICENTER,MEAN_ANOMALY,EPHEMERIS_TYPE,CLASSIFICATION_TYPE,NORAD_CAT_ID,ELEMENT_SET_NO,REV_AT_EPOCH,BSTAR,MEAN_MOTION_DOT,MEAN_MOTION_DDOT
INTELSAT 21 (IS-21),2012-045A,2026-06-17T19:32:16.594944,1.00269936,.0001375,0.0176,355.7130,110.1089,35.3016,0,U,38749,999,5053,0,-.29E-5,0
INTELSAT 23 (IS-23),2012-057A,2026-06-17T19:33:38.964384,1.00267738,.0000167,0.0135,312.7786,56.9469,136.7468,0,U,38867,999,4996,0,-.29E-5,0
FM-6,2013-058A,2026-06-17T11:15:38.600064,1.00264299,.0002221,0.0312,44.0420,130.9080,143.3512,0,U,39360,999,4607,0,0,0
INTELSAT 30 (IS-30),2014-062A,2026-06-17T07:46:38.554176,1.00270102,.0001219,0.0268,50.1227,328.9119,268.1517,0,U,40271,999,679,0,-.155E-5,0
DIRECTV 14,2014-078B,2026-06-17T14:12:27.774432,1.00273169,.0000357,0.0105,11.4946,308.2020,60.0259,0,U,40333,999,4204,0,-.131E-5,0
DIRECTV 15,2015-026A,2026-06-17T15:54:01.805760,1.00267784,.0000411,0.0133,35.6671,285.0486,80.8190,0,U,40663,999,4046,0,-.107E-5,0
SKY MEXICO-1,2015-026B,2026-06-17T19:26:17.170080,1.00270026,.000207,0.0160,23.8332,83.8106,11.1779,0,U,40664,999,4046,0,-.239E-5,0
INTELSAT 34 (IS-34),2015-039A,2026-06-17T19:32:54.036384,1.00269575,.0000477,0.0102,356.7647,331.2099,175.8221,0,U,40874,999,3964,0,-.291E-5,0
INTELSAT 31 (IS-31),2016-035A,2026-06-17T19:21:40.112064,1.00269666,.0001074,0.0150,286.9392,329.0178,205.4561,0,U,41581,999,3669,0,-.156E-5,0
INTELSAT 36 (IS-36),2016-053A,2026-06-17T20:08:15.705024,1.00271067,.000215,0.0131,13.8911,319.5503,303.2041,0,U,41747,999,3596,0,-.3E-6,0
INTELSAT 32E (IS-32E),2017-007B,2026-06-17T19:36:23.699808,1.00268882,.0000716,0.0178,357.9916,314.7958,204.1882,0,U,41945,999,3423,0,-.275E-5,0
INTELSAT 35E (IS-35E),2017-041A,2026-06-17T16:13:37.428096,1.00266508,.0001683,0.0204,1.0645,79.9055,33.8532,0,U,42818,999,3282,0,0,0
INTELSAT 37E (IS-37E),2017-059A,2026-06-16T18:03:41.501952,1.00271710,.00023684,0.0164,21.9885,84.8898,51.0770,0,U,42950,999,3206,0,-.143E-5,0
AZERSPACE 2 (IS-38),2018-074A,2026-06-17T20:07:06.173760,1.00271105,.0001273,0.0176,11.3213,77.3444,164.2968,0,U,43632,999,2845,0,.131E-5,0
HORIZONS-3E,2018-074B,2026-06-17T17:11:37.263264,1.00270832,.0000869,0.0021,233.5565,40.2741,59.0407,0,U,43633,999,2834,0,-.36E-6,0
AT&T T-16,2019-034A,2026-06-17T14:11:57.822144,1.00268538,.0000772,0.0252,66.2499,211.2042,100.5032,0,U,44333,999,2563,0,-.12E-5,0
INTELSAT 39 (IS-39),2019-049B,2026-06-17T20:29:04.659360,1.00270858,.0000915,0.0162,356.9026,323.4763,314.9363,0,U,44476,999,2513,0,.28E-6,0
GALAXY 30 (G-30),2020-056C,2026-06-17T17:30:27.955872,1.00271477,.0002128,0.0146,50.6946,36.1125,316.7814,0,U,46114,999,2129,0,.32E-6,0
GALAXY 33 (G-33),2022-128A,2026-06-17T17:28:13.171008,1.00272294,.0001639,0.0135,36.9082,51.3449,306.7868,0,U,54026,999,1374,0,.74E-6,0
GALAXY 34 (G-34),2022-128B,2026-06-17T17:29:13.077312,1.00277403,.0001609,0.0148,14.9716,90.3282,293.9894,0,U,54027,999,1391,0,.53E-6,0
GALAXY 31 (G-31),2022-153A,2026-06-17T15:48:54.797184,1.00271249,.0001047,0.0132,53.6046,23.1287,305.3899,0,U,54243,999,713,0,.8E-7,0
GALAXY 32 (G-32),2022-153B,2026-06-17T15:57:23.984352,1.00271709,.000209,0.0096,17.9348,15.4582,20.8718,0,U,54244,999,1314,0,-.179E-5,0
GALAXY 35 (G-35),2022-170A,2026-06-17T19:22:02.576928,1.00272514,.000177,0.0146,35.1188,48.8424,19.4903,0,U,54741,999,1290,0,-.168E-5,0
GALAXY 36 (G-36),2022-170B,2026-06-17T19:23:24.946368,1.00270131,.0002549,0.0112,302.3756,142.4671,23.0617,0,U,54742,999,1278,0,-.19E-5,0
GALAXY 37 (G-37),2023-112A,2026-06-17T15:47:09.963744,1.00272276,.0001757,0.0168,330.4587,110.7242,294.5174,0,U,57493,999,1054,0,.43E-6,0
